{
  "type": "FeatureCollection",
  "features": [
    {
      "type": "Feature",
      "properties": {
        "norad_id": 40938,
        "name": "BEIDOU-3S IGSO-2S (C56)",
        "group": "beidou",
        "lat": 49.41238489763675,
        "lon": -14.737232228915104,
        "alt_km": 35834.61775803388,
        "timestamp": "2025-12-09T11:33:55.064831+00:00",
        "meta_object_name": "BEIDOU-3S IGSO-2S (C56)",
        "meta_object_id": "2015-053A",
        "meta_epoch": "2025-12-07T17:59:38.817312",
        "meta_mean_motion": 1.00270783,
        "meta_eccentricity": 0.0060962,
        "meta_inclination": 49.5194,
        "meta_ra_of_asc_node": 261.0646,
        "meta_arg_of_pericenter": 188.6217,
        "meta_mean_anomaly": 353.0712,
        "meta_ephemeris_type": 0,
        "meta_classification_type": "U",
        "meta_norad_cat_id": 40938,
        "meta_element_set_no": 999,
        "meta_rev_at_epoch": 3743,
        "meta_bstar": 0,
        "meta_mean_motion_dot": -1.42e-06,
        "meta_mean_motion_ddot": 0,
        "tle_line1": "1 40938U 15053A   25341.74975483 -.00000142  00000+0  00000+0 0  9996",
        "tle_line2": "2 40938  49.5194 261.0646 0060962 188.6217 353.0712  1.00270783 37435"
      },
      "geometry": {
        "type": "Point",
        "coordinates": [
          -14.737232228915104,
          49.41238489763675
        ]
      }
    },
    {
      "type": "Feature",
      "properties": {
        "norad_id": 41434,
        "name": "BEIDOU-2 IGSO-6 (C13)",
        "group": "beidou",
        "lat": -44.8952261815325,
        "lon": 4.80889514172644,
        "alt_km": 35726.91744926249,
        "timestamp": "2025-12-09T11:33:55.064848+00:00",
        "meta_object_name": "BEIDOU-2 IGSO-6 (C13)",
        "meta_object_id": "2016-021A",
        "meta_epoch": "2025-12-03T15:53:57.382080",
        "meta_mean_motion": 1.00293531,
        "meta_eccentricity": 0.00596341,
        "meta_inclination": 59.9536,
        "meta_ra_of_asc_node": 39.991,
        "meta_arg_of_pericenter": 228.541,
        "meta_mean_anomaly": 135.1173,
        "meta_ephemeris_type": 0,
        "meta_classification_type": "U",
        "meta_norad_cat_id": 41434,
        "meta_element_set_no": 999,
        "meta_rev_at_epoch": 3552,
        "meta_bstar": 0,
        "meta_mean_motion_dot": -1.61e-06,
        "meta_mean_motion_ddot": 0,
        "tle_line1": "1 41434U 16021A   25337.66246970 -.00000161  00000+0  00000+0 0  9993",
        "tle_line2": "2 41434  59.9536  39.9910 0059634 228.5410 135.1173  1.00293531 35525"
      },
      "geometry": {
        "type": "Point",
        "coordinates": [
          4.80889514172644,
          -44.8952261815325
        ]
      }
    },
    {
      "type": "Feature",
      "properties": {
        "norad_id": 41586,
        "name": "BEIDOU-2 G7 (C03)",
        "group": "beidou",
        "lat": -1.5832149503489437,
        "lon": 2.376752531802361,
        "alt_km": 35780.0964680148,
        "timestamp": "2025-12-09T11:33:55.064861+00:00",
        "meta_object_name": "BEIDOU-2 G7 (C03)",
        "meta_object_id": "2016-037A",
        "meta_epoch": "2025-12-09T02:58:38.764992",
        "meta_mean_motion": 1.00268678,
        "meta_eccentricity": 0.0004345,
        "meta_inclination": 1.748,
        "meta_ra_of_asc_node": 67.6955,
        "meta_arg_of_pericenter": 1.8302,
        "meta_mean_anomaly": 163.7219,
        "meta_ephemeris_type": 0,
        "meta_classification_type": "U",
        "meta_norad_cat_id": 41586,
        "meta_element_set_no": 999,
        "meta_rev_at_epoch": 498,
        "meta_bstar": 0,
        "meta_mean_motion_dot": -3.51e-06,
        "meta_mean_motion_ddot": 0,
        "tle_line1": "1 41586U 16037A   25343.12405978 -.00000351  00000+0  00000+0 0  9992",
        "tle_line2": "2 41586   1.7480  67.6955 0004345   1.8302 163.7219  1.00268678  4982"
      },
      "geometry": {
        "type": "Point",
        "coordinates": [
          2.376752531802361,
          -1.5832149503489437
        ]
      }
    },
    {
      "type": "Feature",
      "properties": {
        "norad_id": 43001,
        "name": "BEIDOU-3 M1 (C19)",
        "group": "beidou",
        "lat": -52.14438213302974,
        "lon": 11.123700548156082,
        "alt_km": 21509.52410122596,
        "timestamp": "2025-12-09T11:33:55.064873+00:00",
        "meta_object_name": "BEIDOU-3 M1 (C19)",
        "meta_object_id": "2017-069A",
        "meta_epoch": "2025-12-07T23:26:52.374048",
        "meta_mean_motion": 1.86230858,
        "meta_eccentricity": 0.0009017,
        "meta_inclination": 56.5233,
        "meta_ra_of_asc_node": 69.3913,
        "meta_arg_of_pericenter": 303.8137,
        "meta_mean_anomaly": 56.1206,
        "meta_ephemeris_type": 0,
        "meta_classification_type": "U",
        "meta_norad_cat_id": 43001,
        "meta_element_set_no": 999,
        "meta_rev_at_epoch": 5504,
        "meta_bstar": 0,
        "meta_mean_motion_dot": -4.4e-07,
        "meta_mean_motion_ddot": 0,
        "tle_line1": "1 43001U 17069A   25341.97699507 -.00000044  00000+0  00000+0 0  9995",
        "tle_line2": "2 43001  56.5233  69.3913 0009017 303.8137  56.1206  1.86230858 55042"
      },
      "geometry": {
        "type": "Point",
        "coordinates": [
          11.123700548156082,
          -52.14438213302974
        ]
      }
    },
    {
      "type": "Feature",
      "properties": {
        "norad_id": 43002,
        "name": "BEIDOU-3 M2 (C20)",
        "group": "beidou",
        "lat": -24.463449299394277,
        "lon": 51.89217594927789,
        "alt_km": 21514.050166135516,
        "timestamp": "2025-12-09T11:33:55.064890+00:00",
        "meta_object_name": "BEIDOU-3 M2 (C20)",
        "meta_object_id": "2017-069B",
        "meta_epoch": "2025-12-08T23:44:32.826912",
        "meta_mean_motion": 1.86230548,
        "meta_eccentricity": 0.0006216,
        "meta_inclination": 56.5232,
        "meta_ra_of_asc_node": 69.3945,
        "meta_arg_of_pericenter": 332.7308,
        "meta_mean_anomaly": 27.2585,
        "meta_ephemeris_type": 0,
        "meta_classification_type": "U",
        "meta_norad_cat_id": 43002,
        "meta_element_set_no": 999,
        "meta_rev_at_epoch": 5505,
        "meta_bstar": 0,
        "meta_mean_motion_dot": -4.6e-07,
        "meta_mean_motion_ddot": 0,
        "tle_line1": "1 43002U 17069B   25342.98926883 -.00000046  00000+0  00000+0 0  9990",
        "tle_line2": "2 43002  56.5232  69.3945 0006216 332.7308  27.2585  1.86230548 55052"
      },
      "geometry": {
        "type": "Point",
        "coordinates": [
          51.89217594927789,
          -24.463449299394277
        ]
      }
    },
    {
      "type": "Feature",
      "properties": {
        "norad_id": 43107,
        "name": "BEIDOU-3 M7 (C27)",
        "group": "beidou",
        "lat": 29.607891999795452,
        "lon": 104.99806766274475,
        "alt_km": 21522.004415516138,
        "timestamp": "2025-12-09T11:33:55.064903+00:00",
        "meta_object_name": "BEIDOU-3 M7 (C27)",
        "meta_object_id": "2018-003A",
        "meta_epoch": "2025-12-08T17:34:34.070592",
        "meta_mean_motion": 1.86232165,
        "meta_eccentricity": 0.0002554,
        "meta_inclination": 54.5005,
        "meta_ra_of_asc_node": 308.9546,
        "meta_arg_of_pericenter": 71.3868,
        "meta_mean_anomaly": 288.6293,
        "meta_ephemeris_type": 0,
        "meta_classification_type": "U",
        "meta_norad_cat_id": 43107,
        "meta_element_set_no": 999,
        "meta_rev_at_epoch": 5380,
        "meta_bstar": 0,
        "meta_mean_motion_dot": -7.5e-07,
        "meta_mean_motion_ddot": 0,
        "tle_line1": "1 43107U 18003A   25342.73233878 -.00000075  00000+0  00000+0 0  9995",
        "tle_line2": "2 43107  54.5005 308.9546 0002554  71.3868 288.6293  1.86232165 53808"
      },
      "geometry": {
        "type": "Point",
        "coordinates": [
          104.99806766274475,
          29.607891999795452
        ]
      }
    },
    {
      "type": "Feature",
      "properties": {
        "norad_id": 43108,
        "name": "BEIDOU-3 M8 (C28)",
        "group": "beidou",
        "lat": 0.45687525537440987,
        "lon": 128.56597247066645,
        "alt_km": 21529.68670485866,
        "timestamp": "2025-12-09T11:33:55.064914+00:00",
        "meta_object_name": "BEIDOU-3 M8 (C28)",
        "meta_object_id": "2018-003B",
        "meta_epoch": "2025-12-08T03:21:57.743424",
        "meta_mean_motion": 1.86230794,
        "meta_eccentricity": 0.00047249,
        "meta_inclination": 54.4937,
        "meta_ra_of_asc_node": 308.9576,
        "meta_arg_of_pericenter": 275.4662,
        "meta_mean_anomaly": 84.4669,
        "meta_ephemeris_type": 0,
        "meta_classification_type": "U",
        "meta_norad_cat_id": 43108,
        "meta_element_set_no": 999,
        "meta_rev_at_epoch": 5380,
        "meta_bstar": 0,
        "meta_mean_motion_dot": -7.3e-07,
        "meta_mean_motion_ddot": 0,
        "tle_line1": "1 43108U 18003B   25342.14025166 -.00000073  00000+0  00000+0 0  9998",
        "tle_line2": "2 43108  54.4937 308.9576 0004724 275.4662  84.4669  1.86230794 53800"
      },
      "geometry": {
        "type": "Point",
        "coordinates": [
          128.56597247066645,
          0.45687525537440987
        ]
      }
    }
  ]
}